NORAD_CAT_ID,OBJECT_NAME,OBJECT_TYPE,EPOCH,MEAN_MOTION,ECCENTRICITY,INCLINATION,RA_OF_ASC_NODE,ARG_OF_PERICENTER,MEAN_ANOMALY,BSTAR,MEAN_MOTION_DOT,MEAN_MOTION_DDOT,TLE_LINE0,TLE_LINE1,TLE_LINE2,SEMIMAJOR_AXIS,PERIOD,APOGEE,PERIGEE,DECAYED
53576.0,STARLINK-4581,PAYLOAD,2023-11-12 20:30:03,15.08846461,0.0001634,53.2157,259.9983,108.5039,251.6131,0.00041992,6.403e-05,0.0,0 STARLINK-4581,1 53576U 22101BB  23316.85420478  .00006403  00000-0  41992-3 0  9996,2 53576  53.2157 259.9983 0001634 108.5039 251.6131 15.08846461 69272,6917.861,95.437,540.856,538.595,0.0
53576.0,STARLINK-4581,PAYLOAD,2023-11-13 02:51:35,15.08848237,0.0001389,53.2158,258.8106,99.8248,260.2901,0.00025927,3.842e-05,0.0,0 STARLINK-4581,1 53576U 22101BB  23317.11916340  .00003842  00000-0  25927-3 0  9998,2 53576  53.2158 258.8106 0001389  99.8248 260.2901 15.08848237 68496,6917.855,95.437,540.681,538.759,0.0
53576.0,STARLINK-4581,PAYLOAD,2023-11-13 06:02:21,15.08852656,0.0001417,53.2158,258.2151,102.6885,257.4265,0.00035946,5.439e-05,0.0,0 STARLINK-4581,1 53576U 22101BB  23317.25164150  .00005439  00000-0  35946-3 0  9993,2 53576  53.2158 258.2151 0001417 102.6885 257.4265 15.08852656 69337,6917.842,95.437,540.687,538.726,0.0
53576.0,STARLINK-4581,PAYLOAD,2023-11-14 02:42:22,15.08844837,0.0001465,53.2163,254.3479,100.2427,259.8731,0.000157,2.212e-05,0.0,0 STARLINK-4581,1 53576U 22101BB  23318.11276368  .00002212  00000-0  15700-3 0  9996,2 53576  53.2163 254.3479 0001465 100.2427 259.8731 15.08844837 68641,6917.866,95.437,540.744,538.717,0.0
53576.0,STARLINK-4581,PAYLOAD,2023-11-14 10:39:18,15.08825141,0.0001491,53.2163,252.8618,117.9769,242.1374,-0.00017258,-3.032e-05,0.0,0 STARLINK-4581,1 53576U 22101BB  23318.44396954 -.00003032  00000-0 -17258-3 0  9999,2 53576  53.2163 252.8618 0001491 117.9769 242.1374 15.08825141 68692,6917.926,95.438,540.822,538.759,0.0
53576.0,STARLINK-4581,PAYLOAD,2023-11-14 20:11:37,15.08835642,0.0001495,53.2166,251.0775,100.4615,259.6546,-1.0991e-05,-4.63e-06,0.0,0 STARLINK-4581,1 53576U 22101BB  23318.84140707 -.00000463  00000-0 -10991-4 0  9999,2 53576  53.2166 251.0775 0001495 100.4615 259.6546 15.08835642 68759,6917.894,95.438,540.793,538.724,0.0
53576.0,STARLINK-4581,PAYLOAD,2023-11-15 02:33:09,15.08843148,0.0001745,53.2175,249.8885,74.6739,285.4445,6.139e-05,6.89e-06,0.0,0 STARLINK-4581,1 53576U 22101BB  23319.10636437  .00000689  00000-0  61390-4 0  9996,2 53576  53.2175 249.8885 0001745  74.6739 285.4445 15.08843148 68792,6917.871,95.437,540.943,538.529,0.0
53576.0,STARLINK-4581,PAYLOAD,2023-11-15 18:27:01,15.08838483,0.0001609,53.2175,246.9178,86.2918,273.8258,9.5245e-05,1.228e-05,0.0,0 STARLINK-4581,1 53576U 22101BB  23319.76876686  .00001228  00000-0  95245-4 0  9996,2 53576  53.2175 246.9178 0001609  86.2918 273.8258 15.08838483 69714,6917.885,95.438,540.863,538.637,0.0
53576.0,STARLINK-4581,PAYLOAD,2023-11-16 10:20:53,15.08827414,0.0001325,53.2172,243.9442,89.288,270.8264,-0.00019716,-3.423e-05,0.0,0 STARLINK-4581,1 53576U 22101BB  23320.43117041 -.00003423  00000-0 -19716-3 0  9994,2 53576  53.2172 243.9442 0001325  89.2880 270.8264 15.08827414 68993,6917.919,95.438,540.7,538.867,0.0
53576.0,STARLINK-4581,PAYLOAD,2023-11-17 02:14:44,15.08835563,0.0001652,53.2175,240.969,69.4482,290.6687,-3.6315e-05,-8.66e-06,0.0,0 STARLINK-4581,1 53576U 22101BB  23321.09356988 -.00000866  00000-0 -36315-4 0  9995,2 53576  53.2175 240.9690 0001652  69.4482 290.6687 15.08835563 69094,6917.894,95.438,540.902,538.616,0.0
53576.0,STARLINK-4581,PAYLOAD,2023-11-17 22:54:45,15.08837348,0.0001311,53.218,237.1038,93.115,266.9992,5.3969e-05,5.71e-06,0.0,0 STARLINK-4581,1 53576U 22101BB  23321.95469437  .00000571  00000-0  53969-4 0  9999,2 53576  53.2180 237.1038 0001311  93.1150 266.9992 15.08837348 70047,6917.888,95.438,540.66,538.847,0.0
53576.0,STARLINK-4581,PAYLOAD,2023-11-18 03:40:54,15.08840375,0.000131,53.2177,236.2112,85.8805,274.2337,7.6169e-05,9.25e-06,0.0,0 STARLINK-4581,1 53576U 22101BB  23322.15341288  .00000925  00000-0  76169-4 0  9995,2 53576  53.2177 236.2112 0001310  85.8805 274.2337 15.08840375 69250,6917.879,95.438,540.65,538.838,0.0
53576.0,STARLINK-4581,PAYLOAD,2023-11-18 11:37:50,15.08837026,0.0001373,53.2165,234.725,88.5924,271.5225,3.247e-05,2.29e-06,0.0,0 STARLINK-4581,1 53576U 22101BB  23322.48461374  .00000229  00000-0  32470-4 0  9994,2 53576  53.2165 234.7250 0001373  88.5924 271.5225 15.08837026 70127,6917.889,95.438,540.704,538.805,0.0
53576.0,STARLINK-4581,PAYLOAD,2023-11-19 11:28:38,15.08830696,0.0001497,53.2176,230.265,96.0035,264.1128,0.00029053,4.338e-05,0.0,0 STARLINK-4581,1 53576U 22101BB  23323.47822038  .00004338  00000-0  29053-3 0  9999,2 53576  53.2176 230.2650 0001497  96.0035 264.1128 15.08830696 69458,6917.909,95.438,540.809,538.738,0.0
53576.0,STARLINK-4581,PAYLOAD,2023-11-19 22:36:21,15.0881962,0.0001528,53.2176,228.1836,83.9927,276.1239,-6.1437e-05,-1.265e-05,0.0,0 STARLINK-4581,1 53576U 22101BB  23323.94191627 -.00001265  00000-0 -61437-4 0  9995,2 53576  53.2176 228.1836 0001528  83.9927 276.1239 15.08819620 70340,6917.943,95.439,540.865,538.751,0.0
53576.0,STARLINK-4581,PAYLOAD,2023-11-20 03:22:30,15.08823848,0.0001573,53.2172,227.2905,88.8345,271.2827,-2.6644e-05,-7.12e-06,0.0,0 STARLINK-4581,1 53576U 22101BB  23324.14063460 -.00000712  00000-0 -26644-4 0  9998,2 53576  53.2172 227.2905 0001573  88.8345 271.2827 15.08823848 69558,6917.93,95.439,540.883,538.707,0.0
53576.0,STARLINK-4581,PAYLOAD,2023-11-20 22:27:07,15.08844812,0.0001737,53.2167,223.724,69.5505,290.5674,0.00021602,3.152e-05,0.0,0 STARLINK-4581,1 53576U 22101BB  23324.93550318  .00003152  00000-0  21602-3 0  9995,2 53576  53.2167 223.7240 0001737  69.5505 290.5674 15.08844812 70494,6917.866,95.437,540.932,538.529,0.0
53576.0,STARLINK-4581,PAYLOAD,2023-11-21 03:13:16,15.08852861,0.0001886,53.2161,222.8289,86.8809,273.2399,0.00027043,4.02e-05,0.0,0 STARLINK-4581,1 53576U 22101BB  23325.13421805  .00004020  00000-0  27043-3 0  9996,2 53576  53.2161 222.8289 0001886  86.8809 273.2399 15.08852861 69702,6917.841,95.437,541.011,538.401,0.0
53576.0,STARLINK-4581,PAYLOAD,2023-11-21 07:59:26,15.08839285,0.0001912,53.2161,221.9392,60.9351,299.1832,0.0001257,1.713e-05,0.0,0 STARLINK-4581,1 53576U 22101BB  23325.33294482  .00001713  00000-0  12570-3 0  9992,2 53576  53.2161 221.9392 0001912  60.9351 299.1832 15.08839285 69739,6917.883,95.438,541.07,538.425,0.0
53576.0,STARLINK-4581,PAYLOAD,2023-11-21 20:42:31,15.08846592,0.0001543,53.2154,219.5598,86.4731,273.6438,0.00042361,6.461e-05,0.0,0 STARLINK-4581,1 53576U 22101BB  23325.86286268  .00006461  00000-0  42361-3 0  9999,2 53576  53.2154 219.5598 0001543  86.4731 273.6438 15.08846592 70636,6917.86,95.437,540.793,538.658,0.0
53576.0,STARLINK-4581,PAYLOAD,2023-11-21 23:53:17,15.08858105,0.0001725,53.2153,218.964,73.883,286.2351,0.00047195,7.235e-05,0.0,0 STARLINK-4581,1 53576U 22101BB  23325.99533876  .00007235  00000-0  47195-3 0  9993,2 53576  53.2153 218.9640 0001725  73.8830 286.2351 15.08858105 69835,6917.825,95.436,540.883,538.497,0.0
53576.0,STARLINK-4581,PAYLOAD,2023-11-22 07:50:12,15.08856635,0.000164,53.2163,217.4779,83.848,276.2699,0.00046965,7.198e-05,0.0,0 STARLINK-4581,1 53576U 22101BB  23326.32653238  .00007198  00000-0  46965-3 0  9998,2 53576  53.2163 217.4779 0001640  83.8480 276.2699 15.08856635 70709,6917.83,95.437,540.829,538.56,0.0
53576.0,STARLINK-4581,PAYLOAD,2023-11-22 20:33:17,15.08873156,0.000191,53.2161,215.0994,74.3988,285.7214,0.0017723,0.00028057,0.0,0 STARLINK-4581,1 53576U 22101BB  23326.85644731  .00028057  00000-0  17723-2 0  9990,2 53576  53.2161 215.0994 0001910  74.3988 285.7214 15.08873156 70781,6917.779,95.435,540.965,538.323,0.0
53576.0,STARLINK-4581,PAYLOAD,2023-11-23 07:40:58,15.08826946,0.0001637,53.2161,213.0169,109.8234,250.2934,-0.001155,-0.00018616,0.0,0 STARLINK-4581,1 53576U 22101BB  23327.32012284 -.00018616  00000-0 -11550-2 0  9999,2 53576  53.2161 213.0169 0001637 109.8234 250.2934 15.08826946 70036,6917.92,95.438,540.918,538.653,0.0
53576.0,STARLINK-4581,PAYLOAD,2023-11-23 21:59:27,15.08811936,0.0001521,53.2156,210.3423,84.2393,275.8773,0.00076383,0.0001188,0.0,0 STARLINK-4581,1 53576U 22101BB  23327.91629446  .00011880  00000-0  76383-3 0  9998,2 53576  53.2156 210.3423 0001521  84.2393 275.8773 15.08811936 70944,6917.966,95.439,540.883,538.779,0.0
53576.0,STARLINK-4581,PAYLOAD,2023-11-24 02:45:37,15.08808739,0.0001714,53.2154,209.4498,90.4552,269.6637,0.0016092,0.00025393,0.0,0 STARLINK-4581,1 53576U 22101BB  23328.11501896  .00025393  00000-0  16092-2 0  9993,2 53576  53.2154 209.4498 0001714  90.4552 269.6637 15.08808739 70153,6917.976,95.44,541.027,538.655,0.0
53576.0,STARLINK-4581,PAYLOAD,2023-11-24 05:56:24,15.08819624,0.0001566,53.215,208.8551,81.9545,278.1625,0.0013732,0.00021622,0.0,0 STARLINK-4581,1 53576U 22101BB  23328.24750022  .00021622  00000-0  13732-2 0  9993,2 53576  53.2150 208.8551 0001566  81.9545 278.1625 15.08819624 70993,6917.943,95.439,540.891,538.724,0.0
53576.0,STARLINK-4581,PAYLOAD,2023-11-24 20:14:51,15.08863282,0.0001538,53.2145,206.179,83.3472,276.7695,0.0019551,0.00030985,0.0,0 STARLINK-4581,1 53576U 22101BB  23328.84365735  .00030985  00000-0  19551-2 0  9999,2 53576  53.2145 206.1790 0001538  83.3472 276.7695 15.08863282 70267,6917.809,95.436,540.738,538.61,0.0
53576.0,STARLINK-4581,PAYLOAD,2023-11-24 21:50:15,15.08870018,0.0001544,53.2147,205.8812,83.3696,276.7472,0.0021363,0.00033903,0.0,0 STARLINK-4581,1 53576U 22101BB  23328.90989597  .00033903  00000-0  21363-2 0  9991,2 53576  53.2147 205.8812 0001544  83.3696 276.7472 15.08870018 71095,6917.789,95.436,540.722,538.586,0.0
53576.0,STARLINK-4581,PAYLOAD,2023-11-25 07:22:33,15.08849514,0.0001433,53.2148,204.0968,92.9881,267.1275,-0.00073189,-0.0001192,0.0,0 STARLINK-4581,1 53576U 22101BB  23329.30732978 -.00011920  00000-0 -73189-3 0  9996,2 53576  53.2148 204.0968 0001433  92.9881 267.1275 15.08849514 71157,6917.851,95.437,540.708,538.725,0.0
